{
 "type": "FeatureCollection",
 "hrot": {
  "schemaVersion": 1,
  "bounds": [
   0,
   0,
   600,
   600
  ],
  "groundZ": 0,
  "description": "Open desert test terrain: flat ground, a track, a few rock outcrops and a compound wall. Local metres."
 },
 "features": [
  {
   "type": "Feature",
   "properties": {
    "kind": "building",
    "height": 4,
    "label": "Rock 1"
   },
   "geometry": {
    "type": "Polygon",
    "coordinates": [
     [
      [
       150,
       150
      ],
      [
       170,
       145
      ],
      [
       178,
       162
      ],
      [
       160,
       175
      ],
      [
       148,
       165
      ],
      [
       150,
       150
      ]
     ]
    ]
   }
  },
  {
   "type": "Feature",
   "properties": {
    "kind": "building",
    "height": 6,
    "label": "Rock 2"
   },
   "geometry": {
    "type": "Polygon",
    "coordinates": [
     [
      [
       420,
       380
      ],
      [
       445,
       378
      ],
      [
       450,
       400
      ],
      [
       430,
       410
      ],
      [
       418,
       398
      ],
      [
       420,
       380
      ]
     ]
    ]
   }
  },
  {
   "type": "Feature",
   "properties": {
    "kind": "building",
    "height": 3,
    "floors": 1,
    "label": "Compound Hut"
   },
   "geometry": {
    "type": "Polygon",
    "coordinates": [
     [
      [
       400,
       120
      ],
      [
       420,
       120
      ],
      [
       420,
       135
      ],
      [
       400,
       135
      ],
      [
       400,
       120
      ]
     ]
    ]
   }
  },
  {
   "type": "Feature",
   "properties": {
    "kind": "wall",
    "height": 2.5,
    "thickness": 0.5,
    "label": "Compound Wall"
   },
   "geometry": {
    "type": "LineString",
    "coordinates": [
     [
      380,
      100
     ],
     [
      440,
      100
     ],
     [
      440,
      160
     ],
     [
      380,
      160
     ],
     [
      380,
      100
     ]
    ]
   }
  }
 ]
}